STARLINK-1675           
1 46575U 20070AV  22271.58789248  .00001583  00000+0  12514-3 0  9993
2 46575  53.0559  24.4723 0001932  56.1672 303.9501 15.06406861110448
STARLINK-1677           
1 46576U 20070AW  22271.39209091  .00000146  00000+0  28685-4 0  9997
2 46576  53.0571  50.3347 0001588  66.5958 293.5198 15.06383979110060
STARLINK-1682           
1 46577U 20070AX  22271.42155747  .00001075  00000+0  91016-4 0  9990
2 46577  53.0552  50.1969 0001533  83.6270 276.4893 15.06404234110065
STARLINK-1683           
1 46578U 20070AY  22271.07094219 -.00002831  00000+0 -17122-3 0  9996
2 46578  53.0569  36.8395 0001399  75.0782 285.0362 15.06400638109925
STARLINK-1705           
1 46579U 20070AZ  22270.80969280  .00001860  00000+0  14370-3 0  9997
2 46579  53.0563  52.9534 0001281  81.8346 278.2789 15.06405490109956
STARLINK-1708           
1 46580U 20070BA  22271.38470079  .00001155  00000+0  96413-4 0  9992
2 46580  53.0609  50.3719 0000851  66.7595 293.3483 15.06401790110079
STARLINK-1712           
1 46581U 20070BB  22271.48284705  .00002421  00000+0  18135-3 0  9994
2 46581  53.0530  44.9347 0001379  66.0439 294.0694 15.06406582110149
STARLINK-1728           
1 46582U 20070BC  22271.53445426  .00001220  00000+0  10080-3 0  9997
2 46582  53.0558  44.7084 0001383  89.9293 270.1855 15.06390098110152
STARLINK-1729           
1 46583U 20070BD  22270.19092586 -.00002367  00000+0 -14002-3 0  9997
2 46583  53.0584  70.7340 0001598 104.2898 255.8268 15.06402468109663
STARLINK-1732           
1 46584U 20070BE  22271.40543918 -.00000531  00000+0 -16751-4 0  9998
2 46584  53.0564  45.2826 0001431  74.5541 285.5606 15.06395137109826
STARLINK-1736           
1 46585U 20070BF  22270.82579852  .00001652  00000+0  12979-3 0  9990
2 46585  53.0562  47.8751 0001560  66.2967 293.8186 15.06396935109746
STARLINK-1737           
1 46586U 20070BG  22269.88683336 -.00000149  00000+0  88743-5 0  9993
2 46586  53.0555  52.0885 0001215  89.5373 270.5755 15.06394749109904
STARLINK-1746           
1 46588U 20070BJ  22270.73090528  .00000595  00000+0  58837-4 0  9990
2 46588  53.0561  48.3120 0001551  61.7535 298.3611 15.06403061110031
STARLINK-1749           
1 46589U 20070BK  22270.65719959 -.00000818  00000+0 -36066-4 0  9998
2 46589  53.0557  48.6425 0001494  81.3787 278.7371 15.06390357110017
STARLINK-1755           
1 46591U 20070BM  22270.84516871  .00003483  00000+0  25249-3 0  9999
2 46591  53.0562  47.7936 0001507  75.1709 284.9447 15.06414003109109
FLOCK 4V-18             
1 46597U 20061BG  22271.13550059  .00016622  00000+0  71506-3 0  9990
2 46597  97.3953 341.1186 0007998 123.9103 236.2895 15.22676893109447
FLOCK 4V-19             
1 46609U 20061BH  22271.42555194  .00020506  00000+0  88148-3 0  9997
2 46609  97.3824 340.6702 0004746 109.4852 250.6898 15.22675577109052
GAOFEN 13               
1 46610U 20071A   22271.60267493 -.00000358  00000+0  00000+0 0  9993
2 46610   0.2461 257.7320 0003116 288.7327 155.6815  1.00269410  7287
FLOCK 4V-20             
1 46612U 20061BJ  22271.17419669  .00007864  00000+0  34758-3 0  9999
2 46612  97.3940 340.9296 0008117 128.1683 232.0285 15.21951671108506
STARLINK-1715           
1 46671U 20073B   22270.94012290  .00001360  00000+0  11022-3 0  9994
2 46671  53.0548 137.6162 0001476  66.7709 293.3435 15.06392177107817
STARLINK-1716           
1 46672U 20073C   22271.02348082  .00001669  00000+0  13094-3 0  9999
2 46672  53.0551 132.0019 0001457  90.3736 269.7420 15.06398619107902
STARLINK-1717           
1 46673U 20073D   22269.94398253 -.00000315  00000+0 -22783-5 0  9999
2 46673  53.0533 151.9551 0001294  88.8571 271.2566 15.06396734107042
STARLINK-1718           
1 46674U 20073E   22270.71755691  .00001758  00000+0  13692-3 0  9997
2 46674  53.0546 133.3604 0001421  85.5412 274.5739 15.06389319107375
STARLINK-1720           
1 46675U 20073F   22271.11195444  .00009726  00000+0  67082-3 0  9992
2 46675  53.0520 131.5970 0001344  79.4403 280.6737 15.06406973107912
STARLINK-1766           
1 46677U 20073H   22270.84286544  .00002272  00000+0  17138-3 0  9991
2 46677  53.0545 132.8019 0001447  98.9765 261.1388 15.06402267107390
STARLINK-1773           
1 46679U 20073K   22270.71571591  .00003207  00000+0  23402-3 0  9998
2 46679  53.0520 113.3716 0001527  87.2535 272.8629 15.06410348108148
STARLINK-1774           
1 46680U 20073L   22271.38147734  .00002551  00000+0  19007-3 0  9999
2 46680  53.0539 145.3930 0001601  89.6762 270.4411 15.06405122107746
STARLINK-1775           
1 46681U 20073M   22270.95390207  .00001935  00000+0  14873-3 0  9998
2 46681  53.0548 147.3036 0001438  67.1551 292.9589 15.06403490107674
STARLINK-1776           
1 46682U 20073N   22271.37777768  .00002544  00000+0  18955-3 0  9999
2 46682  53.0558 145.4127 0001349  84.1649 275.9494 15.06416166107854
STARLINK-1780           
1 46684U 20073Q   22271.10088729  .00000138  00000+0  28146-4 0  9995
2 46684  53.0546 131.6527 0001148  97.6524 262.4595 15.06399732107911
STARLINK-1781           
1 46685U 20073R   22271.02300090  .00002369  00000+0  17787-3 0  9991
2 46685  53.0536 146.9749 0001297  96.3735 263.7401 15.06398065107683
STARLINK-1783           
1 46686U 20073S   22271.06722035  .00002342  00000+0  17603-3 0  9991
2 46686  53.0555 146.7595 0001372  88.2794 271.8352 15.06401605107692
STARLINK-1784           
1 46687U 20073T   22270.79311306  .00000906  00000+0  79705-4 0  9992
2 46687  53.0542 113.0326 0001472  68.8832 291.2314 15.06393323108148
STARLINK-1788           
1 46689U 20073V   22271.34829705  .00002610  00000+0  19404-3 0  9996
2 46689  53.0547 145.5292 0001360  86.0273 274.0872 15.06404494107738
STARLINK-1789           
1 46690U 20073W   22271.08337842  .00001486  00000+0  11864-3 0  9997
2 46690  53.0554 121.7329 0001286  98.5829 261.5305 15.06392355108046
STARLINK-1790           
1 46691U 20073X   22271.01611218  .00005058  00000+0  35817-3 0  9996
2 46691  53.0546 132.0225 0001314 108.0698 252.0434 15.06400937107897
STARLINK-1791           
1 46692U 20073Y   22271.33356070  .00001142  00000+0  95534-4 0  9997
2 46692  53.0544 145.5922 0001448  98.8095 261.3058 15.06398296107736
STARLINK-1792           
1 46693U 20073Z   22270.88710706  .00002435  00000+0  18237-3 0  9997
2 46693  53.0547 132.6174 0001196 116.3471 243.7641 15.06388406107868
STARLINK-1793           
1 46694U 20073AA  22270.64568016  .00000392  00000+0  45211-4 0  9990
2 46694  53.0537 113.6948 0001509 103.6088 256.5070 15.06389568107641
STARLINK-1795           
1 46696U 20073AC  22271.06219623 -.00000001  00000+0  18819-4 0  9998
2 46696  53.0542 111.8259 0001466  81.7660 278.3496 15.06389601108180
STARLINK-1797           
1 46698U 20073AE  22270.91933120  .00004012  00000+0  28811-3 0  9995
2 46698  53.0532 132.4477 0001317  98.8752 261.2386 15.06399398107865
STARLINK-1799           
1 46699U 20073AF  22271.05665267  .00002471  00000+0  18478-3 0  9991
2 46699  53.0543 131.8482 0001268 106.7503 253.3625 15.06393730107867
STARLINK-1800           
1 46700U 20073AG  22271.06079095  .00002720  00000+0  20135-3 0  9993
2 46700  53.0556 146.8362 0001288  82.0451 278.0684 15.06410460107697
STARLINK-1801           
1 46701U 20073AH  22271.09351732 -.00000245  00000+0  24775-5 0  9995
2 46701  53.0538 131.6883 0001450  85.7269 274.3886 15.06391865107911
STARLINK-1802           
1 46702U 20073AJ  22270.97373384  .00001067  00000+0  90504-4 0  9993
2 46702  53.0532 112.2193 0001490  84.7829 275.3330 15.06391490108178
STARLINK-1803           
1 46703U 20073AK  22270.73967063  .00002658  00000+0  19735-3 0  9994
2 46703  53.0541 133.2574 0000873  87.1581 272.9508 15.06382262107852
STARLINK-1804           
1 46704U 20073AL  22271.05113407 -.00000696  00000+0 -27863-4 0  9990
2 46704  53.0545 111.8734 0001415  85.1205 274.9945 15.06391635108189
STARLINK-1805           
1 46705U 20073AM  22271.06448398  .00002076  00000+0  15825-3 0  9998
2 46705  53.0552 146.8004 0001426  82.1057 278.0093 15.06396371107696
STARLINK-1807           
1 46706U 20073AN  22271.30362300 -.00000434  00000+0 -10266-4 0  9997
2 46706  53.0548 130.7458 0001475  78.4867 281.6287 15.06395495107947
STARLINK-1808           
1 46707U 20073AP  22270.82997060  .00000831  00000+0  74662-4 0  9990
2 46707  53.0547 112.8694 0001102  81.3424 278.7690 15.06399672108160
STARLINK-1810           
1 46709U 20073AR  22271.10505030  .00001464  00000+0  11715-3 0  9998
2 46709  53.0551 146.7568 0001374  83.8901 276.2245 15.06394069107692
STARLINK-1811           
1 46710U 20073AS  22271.05711773  .00002516  00000+0  18778-3 0  9992
2 46710  53.0542 146.8465 0001308  88.3598 271.7541 15.06392934107698
STARLINK-1813           
1 46711U 20073AT  22270.76547453  .00001600  00000+0  12634-3 0  9990
2 46711  53.0528 133.1581 0001263  92.9435 267.1699 15.06384544107840
STARLINK-1814           
1 46712U 20073AU  22271.34047022  .00003422  00000+0  24841-3 0  9990
2 46712  53.0581 130.6816 0001496  86.4243 273.6917 15.06420429107945
STARLINK-1815           
1 46713U 20073AV  22270.80875051  .00001103  00000+0  92919-4 0  9998
2 46713  53.0560 132.9445 0001361  73.9255 286.1884 15.06399128107865
STARLINK-1816           
1 46714U 20073AW  22270.79864545  .00001407  00000+0  11337-3 0  9994
2 46714  53.0546 132.9964 0001441  87.4910 272.6244 15.06393388107865
STARLINK-1817           
1 46715U 20073AX  22271.06034091  .00002732  00000+0  20225-3 0  9999
2 46715  53.0545 131.8375 0001310  84.6615 275.4523 15.06395511107901
STARLINK-1818           
1 46716U 20073AY  22270.94284954  .00001062  00000+0  90182-4 0  9996
2 46716  53.0555 147.3426 0001401  94.5739 265.5410 15.06397061107671
STARLINK-1820           
1 46717U 20073AZ  22271.01243193  .00000801  00000+0  72687-4 0  9996
2 46717  53.0545 132.0483 0001601  99.4677 260.6493 15.06396959107898
